NORAD_CAT_ID,OBJECT_NAME,OBJECT_TYPE,EPOCH,MEAN_MOTION,ECCENTRICITY,INCLINATION,RA_OF_ASC_NODE,ARG_OF_PERICENTER,MEAN_ANOMALY,BSTAR,MEAN_MOTION_DOT,MEAN_MOTION_DDOT,TLE_LINE0,TLE_LINE1,TLE_LINE2,SEMIMAJOR_AXIS,PERIOD,APOGEE,PERIGEE,DECAYED
53168.0,STARLINK-4105,PAYLOAD,2022-08-30 06:00:00,15.66901838,0.0001303,53.2175,190.8451,65.9966,101.3177,-0.010797,-0.01047361,0.0,0 STARLINK-4105,1 53168U 22083AN  22242.25001157 -.01047361  00000-0 -10797-1 0  9990,2 53168  53.2175 190.8451 0001303  65.9966 101.3177 15.66901838  7525,6745.9119999999975,91.901,368.656,366.898,0.0
53168.0,STARLINK-4105,PAYLOAD,2022-08-30 14:00:01,15.66144999,0.0001151,53.2174,189.2134,81.7327,166.4776,-0.011198,-0.01052635,0.0,0 STARLINK-4105,1 53168U 22083AN  22242.58334491 -.01052635  00000-0 -11198-1 0  9992,2 53168  53.2174 189.2134 0001151  81.7327 166.4776 15.66144999  1306,6748.085,91.946,370.726,369.173,0.0
53168.0,STARLINK-4105,PAYLOAD,2022-08-30 22:00:00,15.65427496,9.83e-05,53.2171,187.5832,80.3079,247.864,-0.012148,-0.01121097,0.0,0 STARLINK-4105,1 53168U 22083AN  22242.91667824 -.01121097  00000-0 -12148-1 0  9993,2 53168  53.2171 187.5832 0000983  80.3079 247.8640 15.65427496  7620,6750.147,91.988,372.675,371.348,0.0
53168.0,STARLINK-4105,PAYLOAD,2022-08-31 12:00:00,15.64055478,9.83e-05,53.2175,184.7415,86.7187,289.2482,-0.01214,-0.01049467,0.0,0 STARLINK-4105,1 53168U 22083AN  22243.50001157 -.01049467  00000-0 -12140-1 0  9992,2 53168  53.2175 184.7415 0000983  86.7187 289.2482 15.64055478  7710,6754.094,92.068,376.622,375.295,0.0
53168.0,STARLINK-4105,PAYLOAD,2022-08-31 14:00:01,15.63863292,0.0001229,53.2176,184.3345,72.5189,52.9032,-0.012193,-0.01046442,0.0,0 STARLINK-4105,1 53168U 22083AN  22243.58334491 -.01046442  00000-0 -12193-1 0  9998,2 53168  53.2176 184.3345 0001229  72.5189  52.9032 15.63863292  1303,6754.647,92.08,377.342,375.682,0.0
53168.0,STARLINK-4105,PAYLOAD,2022-08-31 22:00:00,15.63174818,0.0001198,53.2173,182.7106,82.40799999999999,120.2214,-0.01371,-0.01153131,0.0,0 STARLINK-4105,1 53168U 22083AN  22243.91667824 -.01153131  00000-0 -13710-1 0  9994,2 53168  53.2173 182.7106 0001198  82.4080 120.2214 15.63174818  1302,6756.63,92.12,379.305,377.686,0.0
53168.0,STARLINK-4105,PAYLOAD,2022-09-01 04:00:01,15.62536203,0.0001286,53.2176,181.4987,73.8981,96.1658,-0.012875,-0.01064539,0.0,0 STARLINK-4105,1 53168U 22083AN  22244.16668981 -.01064539  00000-0 -12875-1 0  9991,2 53168  53.2176 181.4987 0001286  73.8981  96.1658 15.62536203  7825,6758.471,92.158,381.205,379.467,0.0
53168.0,STARLINK-4105,PAYLOAD,2022-09-01 14:00:01,15.61586379,0.0001001,53.2175,179.4733,77.904,276.5782,-0.013361,-0.01064309,0.0,0 STARLINK-4105,1 53168U 22083AN  22244.58335648 -.01064309  00000-0 -13361-1 0  9994,2 53168  53.2175 179.4733 0001001  77.9040 276.5782 15.61586379  1303,6761.2109999999975,92.214,383.753,382.399,0.0
53168.0,STARLINK-4105,PAYLOAD,2022-09-01 22:00:00,15.60827802,0.0001111,53.2176,177.8566,73.0339,355.8893,-0.013772,-0.0106511,0.0,0 STARLINK-4105,1 53168U 22083AN  22244.91667824 -.01065110  00000-0 -13772-1 0  9992,2 53168  53.2176 177.8566 0001111  73.0339 355.8893 15.60827802  7937,6763.401999999999,92.259,386.018,384.515,0.0
53168.0,STARLINK-4105,PAYLOAD,2022-09-02 14:00:01,15.59307258,0.0001199999999999,53.2176,174.6281,86.5455,128.654,-0.0145569999999999,-0.01062071,0.0,0 STARLINK-4105,1 53168U 22083AN  22245.58334491 -.01062071  00000-0 -14557-1 0  9992,2 53168  53.2176 174.6281 0001200  86.5455 128.6540 15.59307258  1309,6767.7980000000025,92.349,390.475,388.851,0.0
53168.0,STARLINK-4105,PAYLOAD,2022-09-02 20:00:01,15.58737723,0.0001279,53.2178,173.4193,80.2111,98.9002,-0.014865,-0.01061294,0.0,0 STARLINK-4105,1 53168U 22083AN  22245.83334491 -.01061294  00000-0 -14865-1 0  9998,2 53168  53.2178 173.4193 0001279  80.2111  98.9002 15.58737723  8083,6769.446,92.382,392.177,390.445,0.0
53168.0,STARLINK-4105,PAYLOAD,2022-09-02 22:00:01,15.5859041,0.0001099,53.2173,173.0149,90.7798,196.2323,-0.015825,-0.01117637,0.0,0 STARLINK-4105,1 53168U 22083AN  22245.91668981 -.01117637  00000-0 -15825-1 0  9991,2 53168  53.2173 173.0149 0001099  90.7798 196.2323 15.58590410  1308,6769.873000000001,92.391,392.482,390.994,0.0
53168.0,STARLINK-4105,PAYLOAD,2022-09-03 14:00:01,15.57041328,0.0001196,53.2174,169.7983,64.5106,3.2522,-0.016148,-0.01079332,0.0,0 STARLINK-4105,1 53168U 22083AN  22246.58334491 -.01079332  00000-0 -16148-1 0  9999,2 53168  53.2174 169.7983 0001196  64.5106   3.2522 15.57041328  1303,6774.361999999999,92.483,397.037,395.417,0.0
53168.0,STARLINK-4105,PAYLOAD,2022-09-03 22:00:00,15.56269166,0.0001296999999999,53.2177,168.1941,64.1128,72.6854,-0.016315,-0.01061175,0.0,0 STARLINK-4105,1 53168U 22083AN  22246.91667824 -.01061175  00000-0 -16315-1 0  9997,2 53168  53.2177 168.1941 0001297  64.1128  72.6854 15.56269166  1304,6776.603,92.529,399.347,397.589,0.0
53168.0,STARLINK-4105,PAYLOAD,2022-09-04 12:00:00,15.54941141,0.0001264,53.2175,165.388,73.5446,91.8611,-0.017165,-0.01062504,0.0,0 STARLINK-4105,1 53168U 22083AN  22247.50001157 -.01062504  00000-0 -17165-1 0  9995,2 53168  53.2175 165.3880 0001264  73.5446  91.8611 15.54941141  8347,6780.4609999999975,92.608,403.1830000000001,401.469,0.0
53168.0,STARLINK-4105,PAYLOAD,2022-09-04 14:00:01,15.54755237,0.0001118,53.2172,164.986,78.7463,193.439,-0.017377,-0.01067697,0.0,0 STARLINK-4105,1 53168U 22083AN  22247.58335648 -.01067697  00000-0 -17377-1 0  9991,2 53168  53.2172 164.9860 0001118  78.7463 193.4390 15.54755237  1302,6781.001,92.619,403.624,402.108,0.0
53168.0,STARLINK-4105,PAYLOAD,2022-09-04 20:00:01,15.54180196,0.000127,53.2175,163.787,80.0999,151.8271,-0.017596,-0.01059338,0.0,0 STARLINK-4105,1 53168U 22083AN  22247.83334491 -.01059338  00000-0 -17596-1 0  9990,2 53168  53.2175 163.7870 0001270  80.0999 151.8271 15.54180196  1304,6782.674,92.653,405.4,403.677,0.0
53168.0,STARLINK-4105,PAYLOAD,2022-09-05 04:00:00,15.53420711,0.0001153,53.2175,162.1897,91.9682,205.5661,-0.018099,-0.01059616,0.0,0 STARLINK-4105,1 53168U 22083AN  22248.16667824 -.01059616  00000-0 -18099-1 0  9994,2 53168  53.2175 162.1897 0001153  91.9682 205.5661 15.53420711  8447,6784.884,92.699,407.532,405.967,0.0
53168.0,STARLINK-4105,PAYLOAD,2022-09-05 14:00:01,15.52469807,0.0001187,53.2174,160.1915,68.112,40.1513,-0.018692,-0.01057292,0.0,0 STARLINK-4105,1 53168U 22083AN  22248.58334491 -.01057292  00000-0 -18692-1 0  9998,2 53168  53.2174 160.1915 0001187  68.1120  40.1513 15.52469807  1300,6787.655,92.755,410.325,408.714,0.0
53168.0,STARLINK-4105,PAYLOAD,2022-09-05 20:00:01,15.51902325,0.0001137999999999,53.2176,158.9954,74.7416,351.2722,-0.01914,-0.01060283,0.0,0 STARLINK-4105,1 53168U 22083AN  22248.83334491 -.01060283  00000-0 -19140-1 0  9999,2 53168  53.2176 158.9954 0001138  74.7416 351.2722 15.51902325  8555,6789.309,92.789,411.947,410.402,0.0
53168.0,STARLINK-4105,PAYLOAD,2022-09-05 22:00:00,15.51710366,0.000127,53.2176,158.5975,74.9079,96.9094,-0.019203,-0.01056802,0.0,0 STARLINK-4105,1 53168U 22083AN  22248.91667824 -.01056802  00000-0 -19203-1 0  9999,2 53168  53.2176 158.5975 0001270  74.9079  96.9094 15.51710366  1301,6789.869000000002,92.801,412.596,410.872,0.0
53168.0,STARLINK-4105,PAYLOAD,2022-09-06 12:00:00,15.50276125,0.0001099,53.2176,155.8078,65.9057,124.9482,-0.0090037,-0.00487597,0.0,0 STARLINK-4105,1 53168U 22083AN  22249.50001157 -.00487597  00000-0 -90037-2 0  9999,2 53168  53.2176 155.8078 0001099  65.9057 124.9482 15.50276125  8657,6794.056,92.887,416.668,415.175,0.0
53168.0,STARLINK-4105,PAYLOAD,2022-09-06 14:00:01,15.50131027,0.0001153,53.2174,155.4093,65.0335,231.1664,-0.006287,-0.00344997,0.0,0 STARLINK-4105,1 53168U 22083AN  22249.58334491 -.00344997  00000-0 -62870-2 0  9997,2 53168  53.2174 155.4093 0001153  65.0335 231.1664 15.50131027  1308,6794.48,92.895,417.129,415.562,0.0
53168.0,STARLINK-4105,PAYLOAD,2022-09-06 20:00:01,15.49884208,0.0001250999999999,53.2177,154.2151,68.6851,183.34,4.0484e-05,1.847e-05,0.0,0 STARLINK-4105,1 53168U 22083AN  22249.83334491  .00001847  00000-0  40484-4 0  9996,2 53168  53.2177 154.2151 0001251  68.6851 183.3400 15.49884208  8705,6795.201,92.91,417.917,416.216,0.0
53168.0,STARLINK-4105,PAYLOAD,2022-09-06 22:00:00,15.49885356,9.73e-05,53.2155,153.8083,71.3786,285.6847,-0.00034384,-0.00019916,0.0,0 STARLINK-4105,1 53168U 22083AN  22249.91667824 -.00019916  00000-0 -34384-3 0  9993,2 53168  53.2155 153.8083 0000973  71.3786 285.6847 15.49885356  1303,6795.198,92.91,417.724,416.402,0.0
53168.0,STARLINK-4105,PAYLOAD,2022-09-07 04:00:00,15.49854557,0.0001039,53.2153,152.6146,63.0664,249.6815,0.0010156,0.00057552,0.0,0 STARLINK-4105,1 53168U 22083AN  22250.16667824  .00057552  00000-0  10156-2 0  9998,2 53168  53.2153 152.6146 0001039  63.0664 249.6815 15.49854557  8755,6795.288000000001,92.912,417.859,416.447,0.0
53168.0,STARLINK-4105,PAYLOAD,2022-09-07 14:00:01,15.49865892,8.82e-05,53.2151,150.6213,78.8848,40.0,0.00098151,0.00055613,0.0,0 STARLINK-4105,1 53168U 22083AN  22250.58334491  .00055613  00000-0  98151-3 0  9993,2 53168  53.2151 150.6213 0000882  78.8848  40.0000 15.49865892  1306,6795.255,92.911,417.719,416.521,0.0
53168.0,STARLINK-4105,PAYLOAD,2022-09-07 22:00:00,15.49912698,9.59e-05,53.2153,149.0295,72.9335,106.8644,-0.00021335,-0.00012552,0.0,0 STARLINK-4105,1 53168U 22083AN  22250.91667824 -.00012552  00000-0 -21335-3 0  9996,2 53168  53.2153 149.0295 0000959  72.9335 106.8644 15.49912698  8872,6795.118,92.908,417.635,416.332,0.0
53168.0,STARLINK-4105,PAYLOAD,2022-09-08 14:00:01,15.49894923,8.640000000000001e-05,53.2155,145.8421,79.4439,222.2468,0.0010875,0.0006178,0.0,0 STARLINK-4105,1 53168U 22083AN  22251.58334491  .00061780  00000-0  10875-2 0  9992,2 53168  53.2155 145.8421 0000864  79.4439 222.2468 15.49894923  1309,6795.17,92.91,417.622,416.448,0.0
